NORAD_CAT_ID,OBJECT_NAME,OBJECT_TYPE,EPOCH,MEAN_MOTION,ECCENTRICITY,INCLINATION,RA_OF_ASC_NODE,ARG_OF_PERICENTER,MEAN_ANOMALY,BSTAR,MEAN_MOTION_DOT,MEAN_MOTION_DDOT,TLE_LINE0,TLE_LINE1,TLE_LINE2,SEMIMAJOR_AXIS,PERIOD,APOGEE,PERIGEE,DECAYED
55637.0,STARLINK-5062,PAYLOAD,2024-07-16 05:10:44,14.98329668,0.0003184,69.9998,261.0975,270.4515,89.628,-8.914e-06,-1.99e-06,0.0,0 STARLINK-5062,1 55637U 23021K   24198.21579120 -.00000199  00000-0 -89140-5 0  9993,2 55637  69.9998 261.0975 0003184 270.4515  89.6280 14.98329668 78394,6950.194,96.107,574.272,569.846,0.0
55637.0,STARLINK-5062,PAYLOAD,2024-07-16 13:11:24,14.98330581,0.0003101,69.9997,260.2559,269.3464,90.7339,-2.5101e-05,-3.93e-06,0.0,0 STARLINK-5062,1 55637U 23021K   24198.54959105 -.00000393  00000-0 -25101-4 0  9996,2 55637  69.9997 260.2559 0003101 269.3464  90.7339 14.98330581 78744,6950.191,96.107,574.211,569.901,0.0
55637.0,STARLINK-5062,PAYLOAD,2024-07-17 05:12:45,14.9832387,0.0003049,69.9997,258.5719,268.5683,91.5127,-3.1878e-05,-4.73e-06,0.0,0 STARLINK-5062,1 55637U 23021K   24199.21719624 -.00000473  00000-0 -31878-4 0  9998,2 55637  69.9997 258.5719 0003049 268.5683  91.5127 14.98323870 78542,6950.212,96.107,574.196,569.958,0.0
55637.0,STARLINK-5062,PAYLOAD,2024-07-17 13:13:26,14.98325276,0.0003049,69.9995,257.7303,267.0712,93.0098,-1.2169e-05,-2.38e-06,0.0,0 STARLINK-5062,1 55637U 23021K   24199.55099626 -.00000238  00000-0 -12169-4 0  9999,2 55637  69.9995 257.7303 0003049 267.0712  93.0098 14.98325276 78891,6950.207,96.107,574.192,569.953,0.0
55637.0,STARLINK-5062,PAYLOAD,2024-07-18 05:14:46,14.98329442,0.0003133,69.9991,256.0473,268.4619,91.6181,5.9373e-05,6.15e-06,0.0,0 STARLINK-5062,1 55637U 23021K   24200.21859265  .00000615  00000-0  59373-4 0  9993,2 55637  69.9991 256.0473 0003133 268.4619  91.6181 14.98329442 78696,6950.195,96.107,574.237,569.882,0.0
55637.0,STARLINK-5062,PAYLOAD,2024-07-18 13:15:26,14.98332981,0.0003135,69.9991,255.2053,267.1184,92.9616,8.1452e-05,8.79e-06,0.0,0 STARLINK-5062,1 55637U 23021K   24200.55238973  .00000879  00000-0  81452-4 0  9992,2 55637  69.9991 255.2053 0003135 267.1184  92.9616 14.98332981 79045,6950.184,96.107,574.228,569.87,0.0
55637.0,STARLINK-5062,PAYLOAD,2024-07-19 05:16:47,14.98329091,0.0003149,69.9989,253.5218,266.8798,93.2001,9.0128e-05,9.82e-06,0.0,0 STARLINK-5062,1 55637U 23021K   24201.21999152  .00000982  00000-0  90128-4 0  9994,2 55637  69.9989 253.5218 0003149 266.8798  93.2001 14.98329091 78845,6950.196,96.107,574.249,569.872,0.0
55637.0,STARLINK-5062,PAYLOAD,2024-07-19 13:17:27,14.9833079,0.0003239,69.9989,252.6811,269.6204,90.4584,9.8379e-05,1.081e-05,0.0,0 STARLINK-5062,1 55637U 23021K   24201.55379019  .00001081  00000-0  98379-4 0  9992,2 55637  69.9989 252.6811 0003239 269.6204  90.4584 14.98330790 79199,6950.19,96.107,574.307,569.804,0.0
55637.0,STARLINK-5062,PAYLOAD,2024-07-19 21:18:07,14.9832945,0.000337,69.9985,251.8383,270.8216,89.2557,2.5091e-05,2.06e-06,0.0,0 STARLINK-5062,1 55637U 23021K   24201.88759227  .00000206  00000-0  25091-4 0  9990,2 55637  69.9985 251.8383 0003370 270.8216  89.2557 14.98329450 79246,6950.195,96.107,574.402,569.717,0.0
55637.0,STARLINK-5062,PAYLOAD,2024-07-20 05:18:48,14.98332851,0.0003392,69.9985,250.9967,270.8777,89.1993,-2.9802e-05,-4.49e-06,0.0,0 STARLINK-5062,1 55637U 23021K   24202.22139150 -.00000449  00000-0 -29802-4 0  9991,2 55637  69.9985 250.9967 0003392 270.8777  89.1993 14.98332851 78993,6950.184,96.107,574.407,569.692,0.0
55637.0,STARLINK-5062,PAYLOAD,2024-07-20 13:19:28,14.98337803,0.000335,69.9985,250.155,270.665,89.4126,2.8888e-05,2.52e-06,0.0,0 STARLINK-5062,1 55637U 23021K   24202.55518587  .00000252  00000-0  28888-4 0  9995,2 55637  69.9985 250.1550 0003350 270.6650  89.4126 14.98337803 79348,6950.169,96.106,574.362,569.705,0.0
55637.0,STARLINK-5062,PAYLOAD,2024-07-21 05:20:49,14.98329276,0.0003257,69.9987,248.4716,271.1304,88.9482,-1.4673e-05,-2.68e-06,0.0,0 STARLINK-5062,1 55637U 23021K   24203.22279126 -.00000268  00000-0 -14673-4 0  9999,2 55637  69.9987 248.4716 0003257 271.1304  88.9482 14.98329276 79144,6950.195,96.107,574.324,569.796,0.0
55637.0,STARLINK-5062,PAYLOAD,2024-07-21 13:21:29,14.98331628,0.0003254,69.9987,247.63,271.1849,88.8937,1.2589e-05,5.7e-07,0.0,0 STARLINK-5062,1 55637U 23021K   24203.55658905  .00000057  00000-0  12589-4 0  9999,2 55637  69.9987 247.6300 0003254 271.1849  88.8937 14.98331628 79491,6950.188,96.107,574.314,569.791,0.0
55637.0,STARLINK-5062,PAYLOAD,2024-07-22 05:22:50,14.98329972,0.0003209,69.9986,245.9468,271.5392,88.5399,-1.7185e-06,-1.14e-06,0.0,0 STARLINK-5062,1 55637U 23021K   24204.22419008 -.00000114  00000-0 -17185-5 0  9997,2 55637  69.9986 245.9468 0003209 271.5392  88.5399 14.98329972 79299,6950.193,96.107,574.288,569.828,0.0
55637.0,STARLINK-5062,PAYLOAD,2024-07-22 13:23:30,14.98333554,0.0003124,69.9989,245.1067,266.8255,93.2546,3.0161e-05,2.67e-06,0.0,0 STARLINK-5062,1 55637U 23021K   24204.55798648  .00000267  00000-0  30161-4 0  9998,2 55637  69.9989 245.1067 0003124 266.8255  93.2546 14.98333554 79647,6950.182,96.107,574.218,569.876,0.0
55637.0,STARLINK-5062,PAYLOAD,2024-07-23 10:13:14,14.98330066,0.0003194,69.9985,242.917,267.9699,92.1094,3.5257e-05,3.28e-06,0.0,0 STARLINK-5062,1 55637U 23021K   24205.42586790  .00000328  00000-0  35257-4 0  9997,2 55637  69.9985 242.9170 0003194 267.9699  92.1094 14.98330066 79476,6950.193,96.107,574.278,569.838,0.0
55637.0,STARLINK-5062,PAYLOAD,2024-07-24 11:51:24,14.98325259,0.0003238,69.9983,240.2235,268.0476,92.0312,-4.0028e-05,-5.71e-06,0.0,0 STARLINK-5062,1 55637U 23021K   24206.49403384 -.00000571  00000-0 -40028-4 0  9996,2 55637  69.9983 240.2235 0003238 268.0476  92.0312 14.98325259 79639,6950.208,96.107,574.323,569.822,0.0
55637.0,STARLINK-5062,PAYLOAD,2024-07-25 05:28:52,14.98331904,0.0003403,69.9979,238.3718,269.8831,90.1938,2.6721e-05,2.26e-06,0.0,0 STARLINK-5062,1 55637U 23021K   24207.22838800  .00000226  00000-0  26721-4 0  9992,2 55637  69.9979 238.3718 0003403 269.8831  90.1938 14.98331904 79745,6950.187,96.107,574.417,569.687,0.0
55637.0,STARLINK-5062,PAYLOAD,2024-07-25 10:17:16,14.98332495,0.0003407,69.998,237.8672,270.4664,89.6105,3.2844e-05,2.99e-06,0.0,0 STARLINK-5062,1 55637U 23021K   24207.42866733  .00000299  00000-0  32844-4 0  9993,2 55637  69.9980 237.8672 0003407 270.4664  89.6105 14.98332495 80079,6950.185,96.107,574.418,569.682,0.0
55637.0,STARLINK-5062,PAYLOAD,2024-07-26 05:30:53,14.98331366,0.0003431,69.9981,235.847,270.1462,89.9304,8.0394e-05,8.66e-06,0.0,0 STARLINK-5062,1 55637U 23021K   24208.22978564  .00000866  00000-0  80394-4 0  9991,2 55637  69.9981 235.8470 0003431 270.1462  89.9304 14.98331366 79892,6950.189,96.107,574.438,569.669,0.0
55637.0,STARLINK-5062,PAYLOAD,2024-07-26 10:19:17,14.98333431,0.0003431,69.9981,235.3419,270.6317,89.4449,9.9201e-05,1.091e-05,0.0,0 STARLINK-5062,1 55637U 23021K   24208.43006352  .00001091  00000-0  99201-4 0  9999,2 55637  69.9981 235.3419 0003431 270.6317  89.4449 14.98333431 80223,6950.182,96.107,574.432,569.663,0.0
55637.0,STARLINK-5062,PAYLOAD,2024-07-27 05:32:54,14.98332258,0.0003397,69.9981,233.3219,270.5168,89.5602,-6.0541e-06,-1.65e-06,0.0,0 STARLINK-5062,1 55637U 23021K   24209.23118563 -.00000165  00000-0 -60541-5 0  9995,2 55637  69.9981 233.3219 0003397 270.5168  89.5602 14.98332258 80041,6950.186,96.107,574.412,569.69,0.0
55637.0,STARLINK-5062,PAYLOAD,2024-07-27 11:57:26,14.98332847,0.0003385,69.9982,232.6485,270.5317,89.5454,1.5365e-06,-7.5e-07,0.0,0 STARLINK-5062,1 55637U 23021K   24209.49822453 -.00000075  00000-0  15365-5 0  9996,2 55637  69.9982 232.6485 0003385 270.5317  89.5454 14.98332847 80388,6950.184,96.107,574.402,569.696,0.0
55637.0,STARLINK-5062,PAYLOAD,2024-07-28 05:34:55,14.98331189,0.0003327,69.9981,230.7966,269.4982,90.5796,-4.493e-05,-6.29e-06,0.0,0 STARLINK-5062,1 55637U 23021K   24210.23258603 -.00000629  00000-0 -44930-4 0  9995,2 55637  69.9981 230.7966 0003327 269.4982  90.5796 14.98331189 80199,6950.189,96.107,574.367,569.742,0.0
55637.0,STARLINK-5062,PAYLOAD,2024-07-28 10:23:19,14.98329532,0.0003258,69.9984,230.2925,266.7389,93.3397,-5.4102e-05,-7.39e-06,0.0,0 STARLINK-5062,1 55637U 23021K   24210.43286714 -.00000739  00000-0 -54102-4 0  9995,2 55637  69.9984 230.2925 0003258 266.7389  93.3397 14.98329532 80520,6950.194,96.107,574.324,569.795,0.0
55637.0,STARLINK-5062,PAYLOAD,2024-07-29 05:36:56,14.98329315,0.0003303,69.9984,228.2727,265.2727,94.8055,4.1138e-06,-4.4e-07,0.0,0 STARLINK-5062,1 55637U 23021K   24211.23398554 -.00000044  00000-0  41138-5 0  9994,2 55637  69.9984 228.2727 0003303 265.2727  94.8055 14.98329315 80344,6950.195,96.107,574.356,569.764,0.0
55637.0,STARLINK-5062,PAYLOAD,2024-07-29 10:25:20,14.98329235,0.0003351,69.9982,227.767,268.4834,91.5942,2.3983e-06,-6.4e-07,0.0,0 STARLINK-5062,1 55637U 23021K   24211.43426593 -.00000064  00000-0  23983-5 0  9991,2 55637  69.9982 227.7670 0003351 268.4834  91.5942 14.98329235 80676,6950.195,96.107,574.389,569.731,0.0
55637.0,STARLINK-5062,PAYLOAD,2024-07-29 18:26:00,14.98329451,0.0003398,69.9981,226.9255,269.5716,90.5053,1.4979e-05,8.6e-07,0.0,0 STARLINK-5062,1 55637U 23021K   24211.76806562  .00000086  00000-0  14979-4 0  9992,2 55637  69.9981 226.9255 0003398 269.5716  90.5053 14.98329451 80725,6950.195,96.107,574.421,569.698,0.0
55637.0,STARLINK-5062,PAYLOAD,2024-07-30 05:38:52,14.98381347,0.0002914,69.9981,225.7468,236.3063,123.7818,0.00059022,6.966e-05,0.0,0 STARLINK-5062,1 55637U 23021K   24212.23533560  .00006966  00000-0  59022-3 0  9990,2 55637  69.9981 225.7468 0002914 236.3063 123.7818 14.98381347 80492,6950.034,96.104,573.924,569.874,0.0
55637.0,STARLINK-5062,PAYLOAD,2024-07-30 10:27:20,14.98330988,0.000341,69.9979,225.2418,279.1124,80.9649,1.1329e-05,4.2e-07,0.0,0 STARLINK-5062,1 55637U 23021K   24212.43565735  .00000042  00000-0  11329-4 0  9999,2 55637  69.9979 225.2418 0003410 279.1124  80.9649 14.98330988 80529,6950.19,96.107,574.425,569.685,0.0
